*******************************************************************************
JPL/HORIZONS               389 Industria (A894 EE)         2020-Jun-22 08:58:23
Rec #:     389 (+COV) Soln.date: 2020-May-20_01:04:55   # obs: 3427 (1894-2020)
 
IAU76/J2000 helio. ecliptic osc. elements (au, days, deg., period=Julian yrs):
 
  EPOCH=  2454765.5 ! 2008-Oct-26.00 (TDB)         Residual RMS= .34057
   EC= .06479423593645536  QR= 2.439067348557455   TP= 2454566.2391050369
   OM= 282.5559809056733   W=  263.8459312525513   IN= 8.135096084061546
   A= 2.608054229648361    MA= 46.62847631932238   ADIST= 2.777041110739268
   PER= 4.21195            N= .234007154           ANGMOM= .027722104
   DAN= 2.61527            DDN= 2.57919            L= 186.3398527
   B= -8.087900599999999   MOID= 1.45580995        TP= 2008-Apr-09.7391050369
 
Asteroid physical parameters (km, seconds, rotational period in hours):
   GM= n.a.                RAD= 37.189             ROTPER= 8.53
   H= 7.8                  G= .150                 B-V= .855
                           ALBEDO= .225            STYP= S
 
ASTEROID comments: 
1: soln ref.= JPL#108, OCC=0
2: source=ORB
*******************************************************************************
 
 
*******************************************************************************
Ephemeris / WWW_USER Mon Jun 22 08:58:23 2020 Pasadena, USA      / Horizons
*******************************************************************************
Target body name: 389 Industria (A894 EE)         {source: JPL#108}
Center body name: Solar System Barycenter (0)     {source: DE431}
Center-site name: BODY CENTER
*******************************************************************************
Start time      : A.D. 1969-Jun-28 00:00:00.0000 TDB
Stop  time      : A.D. 2071-May-04 00:00:00.0000 TDB
Step-size       : 7200 minutes
*******************************************************************************
Center geodetic : 0.00000000,0.00000000,0.0000000 {E-lon(deg),Lat(deg),Alt(km)}
Center cylindric: 0.00000000,0.00000000,0.0000000 {E-lon(deg),Dxy(km),Dz(km)}
Center radii    : (undefined)                                                  
Small perturbers: Yes                             {source: SB431-N16}
Output units    : AU-D
Output type     : GEOMETRIC cartesian states
Output format   : 2 (position and velocity)
Reference frame : Ecliptic of J2000.0
*******************************************************************************
Initial IAU76/J2000 heliocentric ecliptic osculating elements (au, days, deg.):
  EPOCH=  2454765.5 ! 2008-Oct-26.00 (TDB)         Residual RMS= .34057        
   EC= .06479423593645536  QR= 2.439067348557455   TP= 2454566.2391050369      
   OM= 282.5559809056733   W=  263.8459312525513   IN= 8.135096084061546       
  Equivalent ICRF heliocentric equatorial cartesian coordinates (au, au/d):
   X=-1.279556495219471E+00  Y=-1.858353624418221E+00  Z=-1.072484072819633E+00
  VX= 9.126299895131871E-03 VY=-6.157968340538186E-03 VZ=-1.493393456082892E-03
Asteroid physical parameters (km, seconds, rotational period in hours):        
   GM= n.a.                RAD= 37.189             ROTPER= 8.53                
   H= 7.8                  G= .150                 B-V= .855                   
                           ALBEDO= .225            STYP= S                     
*******************************************************************************
            JDTDB,            Calendar Date (TDB),        delta-T,                      X,                      Y,                      Z,                     VX,                     VY,                     VZ,
******************************************************************************************************************************************************************************************************************
$$SOE
2450620.500000000, A.D. 1997-Jun-21 00:00:00.0000,      62.184396,  2.652947042367491E+00, -6.623365200420172E-01,  3.505216250223030E-01,  2.596811821845683E-03,  9.658352314596608E-03,  6.663268226229079E-04,
2450625.500000000, A.D. 1997-Jun-26 00:00:00.0000,      62.184255,  2.665465115568299E+00, -6.139311607466080E-01,  3.537917311789417E-01,  2.410313173164979E-03,  9.703216824614331E-03,  6.416830979910521E-04,
2450630.500000000, A.D. 1997-Jul-01 00:00:00.0000,      62.184115,  2.677049177306668E+00, -5.653101004487401E-01,  3.569381369270095E-01,  2.223216441355687E-03,  9.744632162766147E-03,  6.168479277795985E-04,
2450635.500000000, A.D. 1997-Jul-06 00:00:00.0000,      63.183975,  2.687696375044658E+00, -5.164905928066824E-01,  3.599599040560764E-01,  2.035576739788895E-03,  9.782595307727310E-03,  5.918289167299932E-04,
2450640.500000000, A.D. 1997-Jul-11 00:00:00.0000,      63.183835,  2.697404131250719E+00, -4.674899051213922E-01,  3.628561323461290E-01,  1.847448958691746E-03,  9.817103821813274E-03,  5.666336563472393E-04,
2450645.500000000, A.D. 1997-Jul-16 00:00:00.0000,      63.183695,  2.706170142299821E+00, -4.183253154465656E-01,  3.656259595026254E-01,  1.658887771540897E-03,  9.848155839824067E-03,  5.412697254057020E-04,
2450650.500000000, A.D. 1997-Jul-21 00:00:00.0000,      63.183555,  2.713992377406491E+00, -3.690141097524415E-01,  3.682685610942952E-01,  1.469947641846321E-03,  9.875750058672150E-03,  5.157446905482570E-04,
2450655.500000000, A.D. 1997-Jul-26 00:00:00.0000,      63.183419,  2.720869077592759E+00, -3.195735791397510E-01,  3.707831504941880E-01,  1.280682830325836E-03,  9.899885727685975E-03,  4.900661069833771E-04,
2450660.500000000, A.D. 1997-Jul-31 00:00:00.0000,      63.183289,  2.726798754692826E+00, -2.700210171005226E-01,  3.731689788244144E-01,  1.091147402399580E-03,  9.920562639565434E-03,  4.642415192624362E-04,
2450665.500000000, A.D. 1997-Aug-05 00:00:00.0000,      63.183165,  2.731780190395860E+00, -2.203737168224686E-01,  3.754253349049466E-01,  9.013952359503463E-04,  9.937781121994553E-03,  4.382784621250141E-04,
2450670.500000000, A.D. 1997-Aug-10 00:00:00.0000,      63.183046,  2.735812435328216E+00, -1.706489685336482E-01,  3.775515452068068E-01,  7.114800293214602E-04,  9.951542029918842E-03,  4.121844614082257E-04,
2450675.500000000, A.D. 1997-Aug-15 00:00:00.0000,      63.182933,  2.738894808176195E+00, -1.208640568840793E-01,  3.795469738099592E-01,  5.214553095348692E-04,  9.961846738488237E-03,  3.859670350195549E-04,
2450680.500000000, A.D. 1997-Aug-20 00:00:00.0000,      63.182825,  2.741026894850429E+00, -7.103625836098512E-02,  3.814110223662329E-01,  3.313744407241064E-04,  9.968697136659264E-03,  3.596336939763030E-04,
2450685.500000000, A.D. 1997-Aug-25 00:00:00.0000,      63.182727,  2.742208547692965E+00, -2.118283873441685E-02,  3.831431300676151E-01,  1.412906327831006E-04,  9.972095621433755E-03,  3.331919435152661E-04,
2450690.500000000, A.D. 1997-Aug-30 00:00:00.0000,      63.182640,  2.742439884728137E+00,  2.867894946981086E-02,  3.847427736202670E-01, -4.874304977571810E-05,  9.972045092688179E-03,  3.066492842708862E-04,
2450695.500000000, A.D. 1997-Sep-04 00:00:00.0000,      63.182563,  2.741721288958137E+00,  7.853186947260885E-02,  3.862094672245522E-01, -2.386736788215234E-04,  9.968548948490917E-03,  2.800132134911215E-04,
2450700.500000000, A.D. 1997-Sep-09 00:00:00.0000,      63.182495,  2.740053407703513E+00,  1.283587027217266E-01,  3.875427625610765E-01, -4.284484536770877E-04,  9.961611080832924E-03,  2.532912262109857E-04,
2450705.500000000, A.D. 1997-Sep-14 00:00:00.0000,      63.182437,  2.737437151987362E+00,  1.781422513517437E-01,  3.887422487822508E-01, -6.180146926328800E-04,  9.951235871901004E-03,  2.264908162748498E-04,
2450710.500000000, A.D. 1997-Sep-19 00:00:00.0000,      63.182389,  2.733873695960745E+00,  2.278653406276673E-01,  3.898075525086763E-01, -8.073198248737173E-04,  9.937428191317958E-03,  1.996194772769038E-04,
2450715.500000000, A.D. 1997-Sep-24 00:00:00.0000,      63.182354,  2.729364476368782E+00,  2.775108213775651E-01,  3.907383378305446E-01, -9.963113821380705E-04,  9.920193394474445E-03,  1.726847036666872E-04,
2450720.500000000, A.D. 1997-Sep-29 00:00:00.0000,      63.182332,  2.723911192060199E+00,  3.270615724184963E-01,  3.915343063151649E-01, -1.184936989719646E-03,  9.899537321404467E-03,  1.456939920640984E-04,
2450725.500000000, A.D. 1997-Oct-04 00:00:00.0000,      63.182323,  2.717515803542108E+00,  3.765005029773845E-01,  3.921951970210011E-01, -1.373144357528909E-03,  9.875466295913821E-03,  1.186548425000829E-04,
2450730.500000000, A.D. 1997-Oct-09 00:00:00.0000,      63.182326,  2.710180532578036E+00,  4.258105551089800E-01,  3.927207865174371E-01, -1.560881271735663E-03,  9.847987125370829E-03,  9.157475948226615E-05,
2450735.500000000, A.D. 1997-Oct-14 00:00:00.0000,      63.182339,  2.701907861826826E+00,  4.749747061151577E-01,  3.931108889097412E-01, -1.748095586699821E-03,  9.817107101463234E-03,  6.446125303624405E-05,
2450740.500000000, A.D. 1997-Oct-19 00:00:00.0000,      63.182364,  2.692700534521979E+00,  5.239759709703227E-01,  3.933653558694464E-01, -1.934735216823770E-03,  9.782834001858743E-03,  3.732183984158568E-05,
2450745.500000000, A.D. 1997-Oct-24 00:00:00.0000,      63.182402,  2.682561554192212E+00,  5.727974047570280E-01,  3.934840766707072E-01, -2.120748128214095E-03,  9.745176092600477E-03,  1.016404448532742E-05,
2450750.500000000, A.D. 1997-Oct-29 00:00:00.0000,      63.182454,  2.671494184424119E+00,  6.214221051150728E-01,  3.934669782331720E-01, -2.306082330191650E-03,  9.704142131080232E-03, -1.700459919284263E-05,
2450755.500000000, A.D. 1997-Nov-03 00:00:00.0000,      63.182517,  2.659501948667419E+00,  6.698332147066283E-01,  3.933140251717016E-01, -2.490685866771470E-03,  9.659741369455353E-03, -4.417654671760429E-05,
